name,street_address,zip_code,latitude,longitude
Armstrong Playground (Play Area 5 to 12),Carson St,nan,40.42821987,-79.98613126
Fineview Playground (Whirl),63 Edenvale St,nan,40.46189553,-80.00356468
Frick Beechwood Playground (Swing 2 Bays),2515 Beechwood Blvd,nan,40.4300101,-79.91515805
Grandview Playground (Swing 2 Bays),745 McLain St,nan,40.42487439,-79.99406145
Lincoln Place Playground (Play Area 2 to 5),5375 Cox Ave,nan,40.37002022,-79.91737758
Marmaduke Playground (Play Area 2 to 5),1820 Marmaduke St,nan,40.48417911,-80.04243448
Marmaduke Playground (Spring Toy - Turtle),3827 Bonaventure Way,nan,40.48434776,-80.04241546
Mutual Playground (Play Area 5 to 12),Mutual St,nan,40.45221297,-80.063946
Robert E. WIlliams Playground (Spring Toy - Fire Truck),3500 Milwaukee St,nan,40.45450605,-79.95975344
Schenley Anderson Playground (Slide),Panther Hollow Rd,nan,40.43562247,-79.94752293
Sheraden Upper Playground (Play Area 2 to 5),3105 Ashlyn St,nan,40.45580262,-80.05729057
Sue Murray Playground (Spring Toy - Seat),413 Cedar Ave,nan,40.45162795,-80.00150071
Westinghouse Playground (Swing 2 Bays),398 N Murtland St,nan,40.45290843,-79.90333692
Albert Graham Playground (Play Area 5 to 12),Foreside Pl,nan,40.44040909,-79.98407301
Picnic Hut,,nan,40.4582211337825,-79.7491417693863
Pie Traynor Field,,nan,40.5873005860373,-79.9911650847513
Pie Traynor Field Concession Stand,,nan,40.5868364820442,-79.9902115765943
Pie Traynor Soccer Field,,nan,40.5861961597478,-79.9924689838992
Platform Tennis Court 1,,nan,40.6060198656835,-80.01250221928
Platform Tennis Court 2,,nan,40.606107608251,-80.0128546820738
Police Fitness Center,,nan,40.3072710261224,-79.999761009507
Practice Horse Ring,,nan,40.5705242842157,-79.9266030608517
Practice Horse Show Ring,,nan,40.6042304490515,-80.0266890535777
Pump House,,nan,40.4594477197153,-79.7518027488131
Ranch House,,nan,40.6041633981587,-80.0239655539468
Remote Control Airplane Field,,nan,40.4618102871115,-79.743771817807
Remote Control Airplane Field,,nan,40.3017722037884,-80.0021387597225
Rental Building,,nan,40.6105871351412,-80.0172965888606
Rental Farm Buildings,,nan,40.6272321707139,-79.8064588053416
Rental Home,,nan,40.6278063804257,-79.8064373124967
Rental Home 1,,nan,40.6125199958334,-80.0216826179094
Rental Home 1,,nan,40.559984285059,-79.9161471754846
Rental Home 1,,nan,40.3341438659822,-80.0055037594588
Rental Home 2,,nan,40.5945543788836,-80.0130921875616
Rental Home 2,,nan,40.5681259727759,-79.9122678841707
Rental Home 2,,nan,40.3328668582988,-80.003618608478
Rental Home 3,,nan,40.5928207250224,-80.0113967357823
Rental Home 3,,nan,40.5680712111167,-79.9123717710238
Rental Home 3,,nan,40.3138341475053,-80.0111411421901
Rhododendron Playground (Play Area 5 to 12),Lake Dr,nan,40.47915681,-79.91061763
Ream Playground (Swing 2 Bays),345 Virginia Ave,nan,40.43125653,-80.01323474
Ream Playground (Play Area 5 to 12),345 Virginia Ave,nan,40.43125653,-80.01323474
Paul Sciullo Jr. Playground (Play Area 5 to 12),333 Darsie St,nan,40.46237749,-79.95320678
Polish Hill Monument,,nan,40.4567587189232,-79.9673374162385
Pool Grove Playground (Play Area 5 to 12),Lake Dr,nan,40.47915681,-79.91061763
Phillips Playground (Play Area 2 to 5),420 Sinton Ave,nan,40.38813475,-79.99030319
Rental Home 4,,nan,40.5868920277635,-79.9884234941448
Rental Home 5,,nan,40.605164303313,-80.0055145407276
Roller Skating Rink,,nan,40.3231142001908,-80.0138142352785
Rose Barn,,nan,40.6047492953629,-80.0045420572521
Round Barn,,nan,40.3068329425477,-79.9992497934177
Round Hill Soccer Field,,nan,40.2416737513336,-79.8376984903826
Saline Street Green Space,,nan,40.4295182528929,-79.9398402773725
Saline St Passive Area,,nan,40.4193960652515,-79.926428645689
S Euclid Ave Triangle,,nan,40.4624863965922,-79.9280419986429
Schenley Anderson Playground (Play Area 2 to 12),Panther Hollow Rd,nan,40.43562247,-79.94752293
Schenley Anderson Playground (Climber - Overhead),Panther Hollow Rd,nan,40.43562247,-79.94752293
Roland Lockridge Playground (Whirl),Revenue St,nan,40.39401339,-79.92088262
Roland Lockridge Playground (Swing 2 Bays),Revenue St,nan,40.39401339,-79.92088262
Roland Lockridge Playground (Spring Toy - Butterfly),Revenue St,nan,40.39401339,-79.92088262
Roland Lockridge Community Park,,nan,40.3940028673427,-79.9209426707608
Robert E. Williams Park,,nan,40.454673217627,-79.9584532004587
Roland Lockridge Playground (Play Area 5 to 12),Revenue St,nan,40.39401339,-79.92088262
Robert E. WIlliams Playground (Whirl),775 Adelaide St,nan,40.45428215,-79.95968666
Robert E. WIlliams Playground (Swing 3 Bays),3500 Milwaukee St,nan,40.45450605,-79.95975344
Robert E. WIlliams Playground (Play Area 5 to 12),3500 Milwaukee St,nan,40.45450605,-79.95975344
Robert E. WIlliams Playground (Play Area 2 to 5),3500 Milwaukee St,nan,40.45450605,-79.95975344
Pool Grove Playground (Swing 2 Bays),Lake Dr,nan,40.47915681,-79.91061763
Riverview Playground (Play Area 5 to 12),Riverview Ave,nan,40.48124636,-80.01776251
Riverview Playground (Play Area 2 to 5),Riverview Ave,nan,40.48124636,-80.01776251
Riverview Playground (Balance Beam - Sidewalk),Riverview Ave,nan,40.48124636,-80.01776251
Rhododendron Playground (Swing 2 Bays),Lake Dr,nan,40.47915681,-79.91061763
Reynolds St Planting Circle,,nan,40.4464441394956,-79.9032480745498
Schoonemaker Hall,,nan,40.3030118738696,-79.9969872477121
Schwartz Field #1,,nan,40.6183371787755,-80.0480736735098
Schwartz Field #2,,nan,40.6179359184722,-80.0490886674235
Scout Cabin,,nan,40.596487813377,-80.0164774146825
Senior Citizens Softball Complex 1,,nan,40.6186948465814,-80.0156588994971
Senior Citizens Softball Complex 2,,nan,40.6181573681217,-80.0163334191389
Sheraden Senior Center,,nan,40.455110788958,-80.0566378658686
Sheraden Monument,,nan,40.4534986256672,-80.0542509549323
Sheraden Lower Playground (Swing 3 Bays),3285 Surban St,nan,40.45876626,-80.06013755
Shalane's Play Yard Park,,nan,40.4425418256923,-79.9648684910199
Scherer Park,,nan,40.4662939637693,-79.9995804519759
Sheraden Lower Playground (Play Area 5 to 12),3283 Surban St,nan,40.45867357,-80.05994175
Schenley Overlook Playground (Swing 2 Bays),Overlook Dr,nan,40.43212985,-79.94777445
Schenley Overlook Playground (Slide),Overlook Dr,nan,40.43212985,-79.94777445
Schenley Oval Playground (Swing 3 Bays),Overlook Dr,nan,40.43212985,-79.94777445
Schenley Oval Playground (Slide),Overlook Dr,nan,40.43212985,-79.94777445
Schenley Bartlett Playground (Swing 3 Bays),Bartlett Rd,nan,40.43345499,-79.93562215
Schenley Bartlett Playground (Spinner - Cozy Cocoon),Bartlett Rd,nan,40.43345499,-79.93562215
Schenley Bartlett Playground (Play Area 5 to 12),Bartlett Rd,nan,40.43345499,-79.93562215
Schenley Bartlett Playground (Play Area 2 to 5),Bartlett Rd,nan,40.43345499,-79.93562215
Schenley Bartlett Playground (Climber - Crawl Tube),Bartlett Rd,nan,40.43345499,-79.93562215
Schenley Anderson Playground (Whirl),Panther Hollow Rd,nan,40.43562247,-79.94752293
Schenley Anderson Playground (Swing 4 Bays),Panther Hollow Rd,nan,40.43562247,-79.94752293
Warrington Park,,nan,40.4213852839003,-80.0009222922142
Schenley Anderson Playground (Play Area 5 to 12),Panther Hollow Rd,nan,40.43562247,-79.94752293
Skate Board Park,,nan,40.4555477138953,-79.7441957288905
Ski Slopes,,nan,40.4597039263412,-79.7487499756317
Skybus Building,,nan,40.3133486091748,-80.0037292885029
Soccer Field #1,,nan,40.4748453842402,-79.747281356357
"Soccer Field1,2,3",,nan,40.6459256163121,-79.6956330341236
South Park Minature Golf,,nan,40.3226792417325,-80.0128798044641
Southside Riverfront Park,,nan,,
Stratmore Park,,nan,,
Spreading Oak,,nan,40.3308428928011,-80.0030623075068
Sumac Horseshoe,,nan,40.3386927178083,-79.7995679097455
Swimming Pool ,,nan,40.5889377264268,-79.9940849579632
Sullivan Park,,nan,40.4626075958532,-79.9630688768763
Sheraden Upper Playground (Swing 2 Bays),3113 Ashlyn St,nan,40.45587375,-80.05740054
Sue Murray Playground (Spinner),415 Cedar Ave,nan,40.45164775,-80.00164006
Sue Murray Playground (Spinner - Cozy Cocoon),415 Cedar Ave,nan,40.45164775,-80.00164006
Sue Murray Playground (Play Area 5 to 12),415 Cedar Ave,nan,40.45164775,-80.00164006
Sue Murray Playground (Ladder Climber),439 Cedar Ave,nan,40.45169655,-80.00150278
Sterrett School,,nan,40.4461763579525,-79.9046907602819
Sue Murray Playground (Geo Climber),437 Cedar Ave,nan,40.45167428,-80.00158373
Spring Hill Playground (Swing 3 Bays),1202 Romanhoff St,nan,40.47000194,-79.99371533
Spring Hill Playground (Play Area 5 to 12),2310 Hespen St,nan,40.47016734,-79.99363389
Spring Hill Park,,nan,40.4704008082088,-79.9921690729478
Spring Garden School,,nan,40.4648104302123,-79.985299870398
Spring Garden Park,,nan,40.4657706834443,-79.9855870655177
Spring Hill Playground (Play Area 2 to 5),2310 Hespen St,nan,40.47016734,-79.99363389
Southside Playground (Whirl),1629 St Patrick St,nan,40.42059502,-79.98169914
Southside Playground (Swing 3 Bays),1633 St Patrick St,nan,40.42047668,-79.98167507
Southside Playground (Play Area 5 to 12),2359 S 18th St,nan,40.42068104,-79.98166159
Southside Market House,,nan,40.4294207291038,-79.9864302017121
Tennis Court Building,,nan,40.6067722757472,-80.014482013223
Tennis Court Building,,nan,40.4307908917783,-80.1573643849167
Tennis Courts,,nan,40.6069433877118,-80.0139673854697
Tennis Courts,,nan,40.4748154946239,-79.7375480713551
Tennis Courts,,nan,40.4297854624681,-80.1574761925363
Tennis Courts,,nan,40.3181407871131,-80.0066310241089
Texas Field,,nan,40.3259359247847,-80.0110505030457
Tulip Tree Horseshoe,,nan,40.3326405875097,-79.7987113846647
Tulip Tree Volleyball,,nan,40.332860900325,-79.7980865129374
Upper Horse Ring,,nan,40.569879301419,-79.9253418831649
Vanucci Playground (Play Area 2 to 5),1251 Westfield St,nan,40.41470379,-80.01910324
Tustin Playground (Swing 2 Bays),Tustin St,nan,40.43665961,-79.9765898
Tustin Park,,nan,40.4367102111046,-79.9765758574415
Troy Hill Citzen's Park,,nan,40.4631494861201,-79.9836943383604
Tropical Playground (Spring Toy - Pony),Tropical Ave,nan,40.42218695,-80.02435981
Tropical Playground (Spring Toy - Motorcycle),855 Tropical Ave,nan,40.42210458,-80.02403087
Tropical Playground (Play Area 5 to 12),855 Tropical Ave,nan,40.42210458,-80.02403087
Tropical Park,,nan,40.4221684925394,-80.0239875899307
Tropical Playground (Play Area 2 to 5),855 Tropical Ave,nan,40.42210458,-80.02403087
Townsend Playground (Swing 3 Bays),817 Chartiers Ave,nan,40.44294551,-80.04021292
Townsend Playground (Play Area 5 to 12),817 Chartiers Ave,nan,40.44294551,-80.04021292
Townsend Park,,nan,40.443066518159,-80.0402246903155
Thomas Park,,nan,40.4365441527463,-79.9989548421125
Swisshelm War Memorial,,nan,40.4207246280799,-79.8998443133145
Townsend Playground (Play Area 2 to 5),817 Chartiers Ave,nan,40.44294551,-80.04021292
Swisshelm Playground (Whirl),Nightengale Way,nan,40.4207868,-79.90193492
Swisshelm Playground (Swing 3 Bays),1276 Commercial St,nan,40.42110554,-79.90174092
Swisshelm Playground (Stepping Pod - 6),Nightengale Way,nan,40.4207868,-79.90193492
Swisshelm Playground (Play Area 5 to 12),Nightengale Way,nan,40.4207868,-79.90193492
Swisshelm Playground (Play Area 2 to 5),1265 Onondago St,nan,40.42102364,-79.90183285
VIP Building 1,,nan,40.3232556381103,-80.0132297200803
VIP Building 2,,nan,40.3239176810163,-80.0147841009014
Visitor's Center,,nan,40.2419583246505,-79.8523534124743
Wagman Observatory,,nan,40.62609901977,-79.8123756981006
Warehouse/ Police,,nan,40.4756242976316,-79.7390745278668
Water Spray Park,,nan,40.618627394871,-79.8302886432453
Watts Memorial Overlook Deck,,nan,40.6518631506571,-79.6938616348519
Wave Pool ,,nan,40.452860909649,-79.740865157358
Wave Pool Bathhouse,,nan,40.4339711822405,-80.1519125721577
Wave Pool Bathhouse,,nan,40.3146215839394,-80.0148089996854
Wave Pool Concession Stand,,nan,40.4342644112648,-80.1520993113471
Wave Pool Concession Stand,,nan,40.3143301779568,-80.0147907839214
Washburn Square Park,,nan,40.4669868531551,-80.0313804256977
West End Playground (Play Area 2 to 12),West End Park Dr,nan,40.43773653,-80.03724892
Tropical Playground (Swing 3 Bays),855 Tropical Ave,nan,40.42210458,-80.02403087
Wabash Playground (Swing 3 Bays),49 Wabash St,nan,40.43979209,-80.03391176
Wabash Playground (Play Area 5 to 12),47 Wabash St,nan,40.43963168,-80.03409391
Wabash Park,,nan,40.438368563309,-80.0342129761013
Wabash Playground (Play Area 2 to 5),51 Wabash St,nan,40.4396993,-80.03404831
Vincennes Playground (Swing 2 Bays),2837 Orbin St,nan,40.45119437,-79.96747881
Vincennes Playground (Play Area 5 to 12),2850 Webster Ave,nan,40.4513705,-79.9674654
Vincennes Park,,nan,40.4510937082698,-79.9672643508705
Vincennes Playground (Play Area 2 to 5),2837 Orbin St,nan,40.45119437,-79.96747881
Vietnam Veteran's Playground (Swing 3 Bays),110 Panther Hollow Rd,nan,40.43427297,-79.94422101
Vietnam Island,,nan,40.437911650012,-79.912573869486
Venson Park,,nan,40.4164239961075,-80.0047283190724
Vietnam Veteran's Playground (Slide),108 Panther Hollow Rd,nan,40.43418465,-79.9443233
Vanucci Playground (Swing 2 Bays),1251 Westfield St,nan,40.41470379,-80.01910324
Vanucci Playground (Play Area 5 to 12),1250 Orangewood Ave,nan,40.41472224,-80.01894303
Vanucci Park,,nan,40.4147489369204,-80.0179030295745
Wave Pool Engineer Building,,nan,40.433775684311,-80.149863984342
Wave Pool Engineer Building,,nan,40.3130967595471,-80.0153646261406
Wave Pool Raft Rental,,nan,40.4337184631561,-80.1518650444483
Wave Pool Raft Rental,,nan,40.3138474531235,-80.0146537802204
Wave Pool Ticketbooth,,nan,40.4339371003437,-80.1523148395455
Wave Pool Ticketbooth,,nan,40.3148283679751,-80.0148305772152
Wedding Gardens,,nan,40.3384621117259,-79.7917232634347
West Penn Playground (Spring Toy - Pony),416 30th St,nan,40.45622222,-79.97016954
West Penn Playground (Play Area 5 to 12),418 30th St,nan,40.45615357,-79.9701793
West Penn Park,,nan,40.4551070507407,-79.9724308284342
West End Senior Center,,nan,40.4387871725458,-80.034976132305
West Penn Playground (Play Area 2 to 5),408 30th St,nan,40.45625605,-79.9702471
West End Playground (Swing 2 Bays),West End Park Dr,nan,40.43773653,-80.03724892
West End-Elliott Overlook Park,,nan,,
Wetlands,,nan,40.4634074594127,-79.7486441236661
White Oak Multi-Purpose Field,,nan,40.3398347210947,-79.7961003344705
Windermere Circle 1 & 2,,nan,,
Winters Park,,nan,,
Woods Field #1,,nan,40.5863902964353,-79.9876377366482
Woods Field #2,,nan,40.587234297507,-79.9873943054112
Woods Soccer Field,,nan,40.5858178098153,-79.9874793793094
Wyoming Field,,nan,40.6145881869002,-80.0128984648113
Yonest Field #1,,nan,40.6169509497848,-80.047069013424
Yonest Field #2,,nan,40.6169016283109,-80.0477593318481
Zulema Park,,nan,40.4357101739965,-79.9572463118249
Young Field Park,,nan,40.4729348197576,-80.0331474494702
Woods Run Playground (Swing 2 Bays),Central Ave,nan,40.47632334,-80.02940375
Woods Run Playground (Play Area 5 to 12),Central Ave,nan,40.47632334,-80.02940375
Woods Run Park,,nan,40.4763717190104,-80.0291930912993
Woods Run Playground (Play Area 2 to 5),Central Ave,nan,40.47632334,-80.02940375
Winters Playground (Swing 2 Bays),Yard Way,nan,40.42289283,-79.98118978
Winters Playground (Play Area 5 to 12),1852 Baldauf St,nan,40.42298379,-79.9811532
Wightman Park,,nan,40.4433906537128,-79.9269120019043
Westwood School,,nan,40.4305458252118,-80.0500680460559
Washington's Landing Park,,nan,40.4687581643316,-79.9740800678507
Tuxedo Street Skate Park,,nan,40.4533556780685,-80.0664565568721
Swisshelm Park,,nan,40.4207680379615,-79.901863765676
Sheraden Lower Playground (Whirl),3285 Surban St,nan,40.45876626,-80.06013755
Schenley Anderson Playground (Play Area 2 to 5),Panther Hollow Rd,nan,40.43562247,-79.94752293
Regent Square War Memorial,,nan,40.4359093740708,-79.8959060732236
Paulson Playground (Swing 2 Bays),1314 Paulson Ave,nan,40.46895261,-79.9006435
Point State Park,,nan,,
Riverview Park,,nan,,
Sheraden Park,,nan,,
Southside Park,,nan,,
Thomas Blvd Planting Strip,,nan,,
Volunteers Park,,nan,,
West End Park,,nan,,
(Unnamed location),,nan,40.457905065518,-79.7481159230554
100 Acre Field,,nan,40.3350504320428,-80.0107582390371
100 Acre House,,nan,40.3340442540565,-80.0092370248784
80th Division Monument,,nan,40.5944718297715,-79.9960785475574
Abandoned House near Ice Rink,,nan,40.3250913791974,-80.0178820762062
Abandoned House near Round Barn,,nan,40.3065384542139,-79.9993397691318
Able Long Playground (Play Area 5 to 12),211 Coast Ave,nan,40.40840184,-80.02850781
Able Long Playground (Spring Toy - Dragon),211 Coast Ave,nan,40.40840184,-80.02850781
Administration Building,,nan,40.6108558717194,-80.0174100941665
Able Long Playground (Play Area 2 to 5),211 Coast Ave,nan,40.40840184,-80.02850781
Administration Building,,nan,40.4228984346425,-80.1618541097304
Administration Building,,nan,40.3415313640304,-79.7839030355637
Administration Building/ Maintenance,,nan,40.4604830209521,-79.7528227029931
Administration Building/ Maintenance ,,nan,40.6567091737977,-79.7030046297692
Administration Building/ Police,,nan,40.3047664251947,-79.9960734712886
Able Long Park,,nan,40.408164607933,-80.0282703492839
Able Long Playground (Spring Toy - Turtle),211 Coast Ave,nan,40.40840184,-80.02850781
Alaska Field,,nan,40.3331998735226,-80.0086025711514
Albert Graham Playground (Play Area 2 to 5),Foreside Pl,nan,40.44040909,-79.98407301
Allegheny Commons,,nan,,
Alpine Gardens Park,,nan,40.4577140235478,-80.0128837815183
Armstrong Park,,nan,40.4280351162651,-79.9858168477356
Albert Graham Playground (Swing 2 Bays),Foreside Pl,nan,40.44040909,-79.98407301
Albert Turk Graham Park,,nan,40.4405048166122,-79.9839898567401
All-Purpose Room,,nan,40.4604487671106,-79.7526126808499
Alcoa Park,,nan,40.4475371308091,-80.0008456207728
Allegheny Landing Park,,nan,40.4471201799533,-80.002710591134
Allegheny Riverfront Park,,nan,40.4445306975946,-80.0026739788573
Alton Park,,nan,40.4144179707759,-80.0221121130323
Alpine Playground (Play Area 2 to 12),Alpine Ave,nan,40.45770984,-80.01299454
Alton Playground (Play Area 2 to 5),Andick Way,nan,40.41413279,-80.02170509
Alton Playground (Play Area 5 to 12),Andick Way,nan,40.41413279,-80.02170509
Alton Playground (Swing 2 Bays),Andick Way,nan,40.41413279,-80.02170509
Ammon Park,,nan,40.4491954282812,-79.9783754582106
Amber Triangle,,nan,40.4590561697185,-79.9318275425305
Ammon Playground (Play Area 2 to 5),2217 Bedford Ave,nan,40.44897281,-79.97802318
Ammon Playground (Play Area 5 to 12),2217 Bedford Ave,nan,40.44897281,-79.97802318
Arlington Park,,nan,40.4182431307359,-79.9750750256134
Angora Gardens,,nan,40.3411243328553,-79.7844143597844
Archery Range,,nan,40.4716872508452,-79.7469465461039
Ammon Playground (Swing 3 Bays),2217 Bedford Ave,nan,40.44897281,-79.97802318
Arlington Playground (Play Area 2 to 5),1509 Fernleaf St,nan,40.41808693,-79.97564858
Arlington Playground (Play Area 5 to 12),Esop Way,nan,40.4180396,-79.9755219
Arlington Playground (Swing 3 Bays),1505 Fernleaf St,nan,40.41819885,-79.97556793
Arlington Rec Center,,nan,40.4192681596314,-79.9749906998133
Agricultural Building,,nan,40.3034946445569,-79.9967562492805
Frazier Park,,nan,40.4293114712153,-79.9546056355155
Arsenal Park,,nan,40.4666951902779,-79.961229646748
Banksville Park,,nan,,
Armstrong Playground (Swing 3 Bays),81 S 12th St,nan,40.4281679,-79.98625805
Bedford Strip,,nan,,
Arsenal Playground (Play Area 2 to 12),258 40th St,nan,40.46686067,-79.96141434
Arsenal Playground (Swing 4 Bays),253 39th St,nan,40.46672012,-79.96152431
August WIlson Playground (Play Area 5 to 12),Cassatt St,nan,40.44647516,-79.98597556
BMX Track,,nan,40.3326790540605,-80.0054452414684
August Wilson Park,,nan,40.4467436169423,-79.9854853510858
Banksville Playground (Play Area 2 to 5),,nan,40.45852728,-80.02567068
Banksville Playground (Play Area 5 to 12),,nan,40.45852728,-80.02567068
Banksville Playground (Spring Toy - Bunny),,nan,40.45852728,-80.02567068
Banksville Playground (Spring Toy - Turtle),,nan,40.45852728,-80.02567068
Banksville Playground (Swing 3 Bays),,nan,40.45852728,-80.02567068
Baxter Park,,nan,40.4562224083832,-79.8893149303036
Banksville Playground (Whirl),,nan,40.45852728,-80.02567068
Basketball Courts,,nan,40.6171592022201,-80.0247057313603
Basketball Courts,,nan,40.4759892648877,-79.7355296223707
Basketball Courts,,nan,40.3050630745032,-79.9946101511425
Banksville School Park,,nan,40.4072194489816,-80.0373722985452
Bates St Triangle,,nan,40.4349028633555,-79.9562774314599
Baum Negley Triangle,,nan,40.4586455660099,-79.9331328416041
Baxter Playground (Play Area 2 to 12),912 N Braddock Ave,nan,40.4562801,-79.88956369
Baxter Playground (Play Area 2 to 5),7601 Frankstown Ave,nan,40.45606775,-79.88954134
Baxter Playground (Swing 2 Bays),908 N Braddock Ave,nan,40.45609623,-79.8896444
Beech Horseshoe,,nan,40.3397282305245,-79.7976526542303
Beechview Monument,,nan,40.4038001883453,-80.030124442098
Black Ash Little League Field,,nan,40.3047463323499,-79.9933832882082
Black Ashes,,nan,40.3038149502597,-79.9943764180293
Beechview Senior Center Park,,nan,40.4107401169963,-80.0243922545707
Blair Street Park,,nan,40.4038608562013,-79.9455871184936
Boathouse,,nan,40.604812473496,-80.0072838814748
Boating Area,,nan,40.6049418175896,-80.0087342621924
Bocce Ball,,nan,40.345684210237,-79.7916379865077
Brighton Heights Park,,nan,,
Brookline Memorial Park,,nan,,
Bon Air Playground (Play Area 2 to 5),320 Calle St,nan,40.4075993,-80.00024937
Bon Air Playground (Play Area 5 to 12),320 Calle St,nan,40.4075993,-80.00024937
Boundary Street Park,,nan,40.4386047419317,-79.9503589207738
Bon Air Playground (Swing 3 Bays),356 Calle St,nan,40.40755462,-80.00005235
Boundary Street Playground (Play Area 2 to 12),Boundary St,nan,40.43854154,-79.95025959
Boxing Gym,,nan,40.3345369724347,-80.0094317353428
Boyce Ballfield #2,,nan,40.4752411750088,-79.7353492025166
Boyce Ballfield #3,,nan,40.4752079369862,-79.7366246730149
Boyce Little League Ballfield #1,,nan,40.4739624840442,-79.7351278080649
Boundary Street Playground (Swing 2 Bays),Boundary St,nan,40.43854154,-79.95025959
Brighton Heights Playground (Play Area 2 to 5),Weitz Way,nan,40.48666605,-80.03189913
Brighton Heights Playground (Play Area 5 to 12),Weitz Way,nan,40.48666605,-80.03189913
Brookline Monument,,nan,40.391746916054,-80.0170966553076
Brighton Heights Playground (Swing 3 Bays),1144 W Point Ave,nan,40.48659743,-80.0318333
Brighton Heights Senior Center,,nan,40.4793381250671,-80.035834987653
Brookline Playground (Play Area 2 to 5),Doric Way,nan,40.39159623,-80.00841402
Brookline Playground (Play Area 5 to 12),Doric Way,nan,40.39159623,-80.00841402
Brookline Playground (Spring Toy - Bulldozer),Doric Way,nan,40.39159623,-80.00841402
Bud Hammer Park,,nan,40.4208253457019,-79.9461123110785
Brookline Playground (Swing 4 Bays),Doric Way,nan,40.39159623,-80.00841402
Bud Hammer Playground (Play Area 2 to 5),132 Bigelow St,nan,40.4216005,-79.94698808
Bud Hammer Playground (Play Area 5 to 12),114 Bigelow St,nan,40.42179474,-79.94727507
Bon Air Park,,nan,40.4076370069139,-79.9998280371542
Blue Spruce Horseshoe,,nan,40.3333066262204,-79.7994769294062
Bud Hammer Playground (Swing 3 Bays),122 Bigelow St,nan,40.4215104,-79.94723484
Buhl Community Park at Allegheny Square,,nan,40.452690275877,-80.0056692278396
Burgwin Playground (Play Area 2 to 5),606 Johnston Ave,nan,40.4049644,-79.93643032
Burgwin Playground (Play Area 5 to 12),608 Johnston Ave,nan,40.40487428,-79.93642374
Burgwin Playground (Swing 2 Bays),602 Johnston Ave,nan,40.40472977,-79.93662076
Cabin,,nan,40.5934931965377,-79.9993641611861
Cabin,,nan,40.303410958051,-79.9978284212507
Catalano Park,,nan,40.460353879946,-79.9917668306934
Camp Rolling Hills Boy Scout Cabin,,nan,40.3091523290078,-79.9942964296669
Carp Field,,nan,40.6259955057692,-79.8226796966632
Carpenter Log Cabin,,nan,40.4627007511824,-79.7409582863532
Camp David Lawrence Playground (Play Area 5 to 12),Overlook Dr,nan,40.43212985,-79.94777445
Catalono Playground (Play Area 2 to 5),Arcola Way,nan,40.4602643,-79.99196715
Catalono Playground (Play Area 5 to 12),Arcola Way,nan,40.4602643,-79.99196715
Chadwick Park,,nan,40.4652806027257,-79.8907948755917
Cedar 1 VolleyBall,,nan,40.3360575906704,-79.7969138985456
Catalono Playground (Swing 2 Bays),1130 Spring Garden Ave,nan,40.46024471,-79.99209565
Chadwick Playground (Play Area 2 to 12),7255 Gladefield St,nan,40.46517265,-79.89042919
Chadwick Playground (Play Area 2 to 5),7239 Gladefield St,nan,40.46517432,-79.89057451
Chartiers Park,,nan,40.4574288096649,-80.0737704023393
Chadwick Playground (Swing 3 Bays),Oberlin St,nan,40.46518774,-79.89026996
Chartiers Playground (Play Area 2 to 5),3789 Chartiers Ave,nan,40.45732948,-80.07514536
Chartiers Playground (Play Area 5 to 12),1544 Summerdale St,nan,40.45668138,-80.07501933
Chartiers Playground (Swing 2 Bays),3783 Chartiers Ave,nan,40.45721835,-80.07507026
Chartiers Playground (Swing 2 Bays),1550 Summerdale St,nan,40.45681173,-80.07513098
Chestnut Volleyball Court,,nan,40.3459630084694,-79.7916451312061
Buffalo Inn,,nan,40.3051349087295,-79.9954777722103
Children's Big-Wheel Area,,nan,40.3164779004122,-80.0057208051059
Chartiers Playground (Whirl),1548 Summerdale St,nan,40.45697029,-80.0751105
Burgwin Park,,nan,40.4046903197261,-79.9364816046074
Cobden Street Park,,nan,40.4193754545031,-79.968038936669
Community House,,nan,40.3159058676236,-79.9989041892225
Cottage,,nan,40.3038999583569,-79.9989222249428
Crosstown,,nan,,
Cowley Playground (Play Area 2 to 5),1300 Truax Way,nan,40.45884008,-79.98816607
Cowley Playground (Play Area 5 to 12),1300 Truax Way,nan,40.45884008,-79.98816607
Cowley Playground (Spinner - Cozy Cocoon),1300 Truax Way,nan,40.45884008,-79.98816607
Crafton Heights Park,,nan,40.4361951442997,-80.056916929731
Cowley Playground (Swing 1 Bay),1306 Truax Way,nan,40.45895202,-79.98816757
Craft Triangle,,nan,40.435963013914,-79.9619013746887
Crafton Heights Playground (Play Area 5 to 12),Preston St,nan,40.43612469,-80.05657753
Cross and Strauss Park,,nan,40.4652065825954,-80.0199696542778
Crafton Heights Playground (Spring Toy - Motorcycle),Preston St,nan,40.43612469,-80.05657753
Crescent School,,nan,40.4539477457825,-79.8807543161822
Cross and Strauss Playground (Play Area 5 to 12),Cross St,nan,40.46508586,-80.02008678
Cross and Strauss Playground (Swing 2 Bays),Cross St,nan,40.46508586,-80.02008678
Dallas Park,,nan,40.4578905600159,-79.904322515852
Cross and Strauss Playground (Whirl),Cross St,nan,40.46508586,-80.02008678
Dallas Playground (Play Area 2 to 5),PA-380,nan,40.45780902,-79.90439426
Dallas Playground (Play Area 5 to 12),PA-380,nan,40.45780902,-79.90439426
Dallas Playground (Swing 3 Bays),707 PA-380,nan,40.45779582,-79.90456854
Davis Park,,nan,40.4323593980647,-79.9246944795817
Dallas Playground (Whirl),PA-380,nan,40.45780902,-79.90439426
Davis Playground (Play Area 2 to 5),5700 Hobart St,nan,40.43230251,-79.92456136
Davis Playground (Play Area 5 to 12),5700 Hobart St,nan,40.43230251,-79.92456136
Davis Playground (Spring Toy - Fire Truck),5700 Hobart St,nan,40.43230251,-79.92456136
Davis Playground (Swing 3 Bays),5700 Hobart St,nan,40.43230251,-79.92456136
Deck Hockey Rink,,nan,40.316881938501,-80.0057538504612
Cowley Park,,nan,40.4583130880302,-79.9890604468285
Commissioners Ballfield,,nan,40.4572797534826,-79.7462461887569
Deer Pit Playground (Play Area 5 to 12),950 Brighton Rd,nan,40.45302644,-80.01354843
East Liberty Strip,,nan,,
Denny Park,,nan,40.4577574359105,-79.9731498520707
Demo Gardens,,nan,40.4600018063634,-79.7522765788597
Deer Pit Playground (Swing 2 Bays),954 Brighton Rd,nan,40.45303386,-80.01367035
Dinan Park,,nan,40.4836375005218,-79.9325787811087
Devil's Elbow Field,,nan,40.5851920574403,-79.9969317957301
Denny Playground (Play Area 2 to 5),2901 Liberty Ave,nan,40.45771879,-79.97340645
Devlin Field,,nan,40.4137427310178,-79.9628431501571
Dinan Playground (Play Area 2 to 5),4742 Farmington Rd,nan,40.48423797,-79.93307595
Dinan Playground (Play Area 5 to 12),1503 Windcrest Dr,nan,40.48419974,-79.93294184
Dunbar Park,,nan,40.4387425390048,-80.052413602295
Donora Field,,nan,40.589550514852,-79.9841997782821
Dinan Playground (Swing 3 Bays),4746 Farmington Rd,nan,40.48411186,-79.93305644
Dunbar Playground (Play Area 5 to 12),1205 Clairhaven St,nan,40.43927694,-80.05202003
Dunbar Playground (Swing 2 Bays),1201 Clairhaven St,nan,40.43932108,-80.05189396
Duncan Park,,nan,40.4804049773978,-79.9481916637248
Dunbar Playground (Whirl),1205 Clairhaven St,nan,40.43927694,-80.05202003
East Carnegie Park,,nan,40.4147661933986,-80.0746844695636
Dunseith Playground (Play Area 2 to 12),274 Dunseith St,nan,40.4426223,-79.96488142
East Carnegie Playground (Play Area 5 to 12),722 Doolittle St,nan,40.41460495,-80.07507197
Edgerton Circle,,nan,40.447884093735,-79.9131667641937
East Carnegie Playground (Swing 2 Bays),Doolittle St,nan,40.41467179,-80.07494517
East Hills Park,,nan,40.453924548988,-79.8704772562336
East Liberty Park,,nan,40.4621027003981,-79.9187904171366
Edgebrook Field,,nan,40.3110485185886,-80.0018587148932
Eileen McCoy Playground (Play Area 2 to 5),239 Shaler St,nan,40.43823855,-80.02446603
Eileen McCoy Playground (Play Area 5 to 12),239 Shaler St,nan,40.43823855,-80.02446603
Eileen McCoy Playground (Spinner - Cozy Cocoon),1580 Greenleaf St,nan,40.43808151,-80.02460802
Deer Pit Playground (Spring Toy - Fire Truck),944 Brighton Rd,nan,40.4529874,-80.01349211
Emerald View Park  - Grandview Park,,nan,,
Eleanor St. Playground (Play Area 2 to 5),2314 Sierra St,nan,40.42152837,-79.97301912
Emerald View Park - Duquesne Heights Greenway,,nan,,
Eleanor St. Playground (Play Area 5 to 12),Eleanor St,nan,40.4215066,-79.97278845
Emerald View Regional Park,,nan,,
Enright Park,,nan,40.4618702415472,-79.9299551869859
Eleanor St. Playground (Swing 2 Bays),2317 Primrose St,nan,40.42134169,-79.9727053
Eleanor Street Park,,nan,40.4214362198758,-79.972679465914
Emerald View Park - Bigbee Field,,nan,40.4277789068992,-80.0013807175816
Emerald View Park - Eileen McCoy Park,,nan,40.438006525326,-80.0245740427308
Emerald View Park - Grandview Overlook,,nan,40.4343383573569,-80.0108367543724
Emerald View Park - Mt. Washington Park,,nan,40.4216189172577,-80.0142560844172
Emerald View Park - Olympia Park,,nan,40.4314921480731,-80.0182722378949
Emerald View Park - Ream Park,,nan,40.4309232275966,-80.0134216914637
Emerald View Park - Shiloh Street Park,,nan,40.4314348967077,-80.0067522342472
Employee Lunch Room,,nan,40.568115016502,-79.9125026693167
Enright Playground (Geo Climber),201 Amber St,nan,40.46207321,-79.92986672
Enright Playground (Play Area 2 to 5),201 Amber St,nan,40.46207321,-79.92986672
Enright Playground (Swing 2 Bays),201 Amber St,nan,40.46207321,-79.92986672
Environmental Learning Center,,nan,40.6571683091905,-79.702994517036
Eric Guy Kelly Playground (Play Area 5 to 12),Escolta St,nan,40.44863018,-80.08007366
Eric Guy Kelly Playground (Spinner - Cozy Cocoon),Escolta St,nan,40.44863018,-80.08007366
Esplen Park,,nan,40.4606557093426,-80.0508204531192
Eric Guy Kelly Playground (Swing 2 Bays),Escolta St,nan,40.44863018,-80.08007366
Esplen Playground (Play Area 2 to 12),Esplen Way,nan,40.46067807,-80.05073246
Exhibit Building 10,,nan,40.3029327025261,-79.9962198757506
Eileen McCoy Playground (Swing 3 Bays),Crooked Way,nan,40.43807831,-80.02431482
Esplen Playground (Swing 2 Bays),Esplen Way,nan,40.46067807,-80.05073246
Exhibit Building 3,,nan,40.3038237728668,-79.9963286985365
Exhibit Building 39,,nan,40.3030153743554,-79.9959341119392
Exhibit Building 4,,nan,40.3037430708087,-79.9966163995151
Exhibit Building 5,,nan,40.3035537133467,-79.9962022217109
Exhibit Building 6,,nan,40.3034753487921,-79.9964860914845
Exhibit Building 7,,nan,40.303284539234,-79.996066288973
Exhibit Building 8,,nan,40.3032047421603,-79.9963520415109
Exhibit Garden,,nan,40.2412558450343,-79.8489494067412
Fairgrounds Softball #1,,nan,40.3060079885818,-79.9983881476072
Fairgrounds Softball #2,,nan,40.3049574704387,-79.9978831768643
Fairgrounds Softball #3,,nan,40.3042156953918,-79.9975173045015
Farm House,,nan,40.2413808314127,-79.8510664415883
Farmhouse Playground (Play Area 2 to 5),18 Farmhouse Dr,nan,40.47598693,-79.91344761
Farmhouse Playground (Play Area 5 to 12),25 Farmhouse Dr,nan,40.47623907,-79.91363805
Farmhouse Playground (Swing 2 Bays),22 Farmhouse Dr,nan,40.47613935,-79.91344169
Fifty-Seventh St Playground (Play Area 5 to 12),29 57th St,nan,40.48605813,-79.9467796
Fineview Park,,nan,40.4615631244302,-80.0043200667867
Fifty-Seventh St Playground (Swing 2 Bays),33 57th St,nan,40.48598024,-79.94674546
Filtration Plant,,nan,40.5886559894527,-79.9951005386219
Fifty-Seventh Street Park,,nan,40.4858083244234,-79.9466706496807
Fineview Field,,nan,40.459661799824,-80.0041321616413
Fineview Playground,20 Edenvale St,nan,40.46177164,-80.00358261
Fineview Playground (Play Area 2 to 12),20 Edenvale St,nan,40.46177164,-80.00358261
Fineview Playground (Play Area 2 to 5),63 Edenvale St,nan,40.46189553,-80.00356468
Fineview Playground (Play Area 5 to 12),20 Edenvale St,nan,40.46177164,-80.00358261
Fineview Playground (Play Area 5 to 12),Fineview Ave,nan,40.46171282,-80.00362089
Fineview Playground (Swing 2 Bays),20 Edenvale St,nan,40.46177164,-80.00358261
Horse Barn,,nan,40.6124538776595,-80.0227871601217
Exhibit Building 11,,nan,40.3027846491044,-79.9959845334319
Fairywood Park,,nan,40.4487056915577,-80.0803528386264
Fineview Playground (Swing 2 Bays),Fineview Ave,nan,40.46171282,-80.00362089
Flag Retirement Area,,nan,40.3088198484719,-79.9942579981538
Flower Show Building/ Concert Theatre,,nan,40.3076429053356,-79.9960776493891
Forbes and Braddock Playground (Balance Beam - Sidewalk),646 S Braddock Ave,nan,40.43888438,-79.89804626
Frankstown Triangle 1 & 2,,nan,,
Forbes and Braddock Playground (Play Area 5 to 12),7288 Forbes Ave,nan,40.43921889,-79.89816127
Fort Duquesne Blvd Strip,,nan,,
Forbes and Braddock Playground (Play Area 5 to 12),628 S Braddock Ave,nan,40.43892502,-79.89829215
Four Mile Run Park,,nan,,
Forbes and Braddock Playground (Spinner - Cozy Cocoon),646 S Braddock Ave,nan,40.43888438,-79.89804626
Forbes and Braddock Playground (Spinner - Spin Cup),620 S Braddock Ave,nan,40.43917892,-79.8980196
Forbes and Braddock Playground (Swing 3 Bays),7282 Forbes Ave,nan,40.43913724,-79.89851824
Forbes and Braddock Playground (Swing 3 Bays),646 S Braddock Ave,nan,40.43888438,-79.89804626
Fort Pitt Park,,nan,40.4694546609779,-79.9434346492135
Forbes and Braddock Playground (Whirl),7286 Forbes Ave,nan,40.43932683,-79.89828148
Fort Pitt Playground (Climber - Loop),4998 Breesport St,nan,40.46999411,-79.94167011
Fort Pitt Playground (Climber - Uneven Bars),4998 Breesport St,nan,40.46999411,-79.94167011
Fort Pitt Playground (Climber - Wood),4998 Breesport St,nan,40.46999411,-79.94167011
Fort Pitt Playground (Play Area 5 to 12),4998 Breesport St,nan,40.46999411,-79.94167011
Fort Pitt Playground (Spring Toy - Stand Up),4998 Breesport St,nan,40.46999411,-79.94167011
Fort Pitt Playground (Spring Toy - Whale),4998 Breesport St,nan,40.46999411,-79.94167011
Four Mile Run Playground (Play Area 2 to 12),305 Four Mile Run Rd,nan,40.42795797,-79.94851377
Four Mile Run Playground (Play Area 2 to 5),305 Four Mile Run Rd,nan,40.42795797,-79.94851377
Four Seasons Activities Center,,nan,40.4615190702417,-79.7468498621092
Four Mile Run Playground (Swing 2 Bays),I-376 E,nan,40.42800238,-79.94834758
Frank Curto Park,,nan,40.4509096685307,-79.9783846185835
Fowler Park,,nan,40.4702754432733,-80.009837406103
Frick Park,,nan,,
Frazier Playground (Play Area 5 to 12),3724 Frazier St,nan,40.42927751,-79.95394
Frazier Playground (Swing 2 Bays),3724 Frazier St,nan,40.42927751,-79.95394
Frick Beechwood Playground (Geo Climber),6515 English Ln,nan,40.42991961,-79.91491995
Frick Beechwood Playground (Play Area 2 to 12),6519 English Ln,nan,40.43008703,-79.91475268
Frick Beechwood Playground (Play Area 2 to 5),,nan,40.45852728,-80.02567068
Frick Beechwood Playground (Play Area 5 to 12),6519 English Ln,nan,40.43008703,-79.91475268
Frick Beechwood Playground (Slide),6517 English Ln,nan,40.4299816,-79.91483071
Garland Park,,nan,40.4640971819993,-79.9276434939305
Frazier Playground (Play Area 2 to 5),3724 Frazier St,nan,40.42927751,-79.95394
Garland Playground (Play Area 2 to 5),133 N Euclid Ave,nan,40.46330708,-79.92789061
Frick Beechwood Playground (Swing 3 Bays),6513 English Ln,nan,40.42999311,-79.91497164
Game Preserve House,,nan,40.3089254770831,-80.0036441669796
Friendship Park,,nan,40.4625588553402,-79.9459501241422
Gardner Park,,nan,40.4617033529656,-79.9863719300304
Garland Playground (Play Area 5 to 12),N St Clair St,nan,40.4636062,-79.92810251
Garland Playground (Swing 2 Bays),N St Clair St,nan,40.4636062,-79.92810251
Glen Arden Triangle,,nan,40.4482532308658,-79.9118695308793
Grandview Playground (Play Area 2 to 5),745 McLain St,nan,40.42487439,-79.99406145
Garland Playground (Swing 2 Bays),133 N Euclid Ave,nan,40.46330708,-79.92789061
Gate House,,nan,40.5644551817155,-79.9053659823345
Girl Scout Cabin,,nan,40.31894295464,-80.0107093083668
Garvin Park,,nan,40.4925207470943,-80.0186954367405
Gladstone Park,,nan,40.41543674647,-79.9387483090185
Glen Arden Circle,,nan,40.4471395198872,-79.913127714288
Golf Course Clubhouse,,nan,40.6065811749621,-80.0213223249996
Golf Course Clubhouse,,nan,40.3237775647084,-79.9991212545345
Grandview Playground (Play Area 5 to 12),745 McLain St,nan,40.42487439,-79.99406145
Grandview Playground (Swing 1 Bay),745 McLain St,nan,40.42487439,-79.99406145
Granville Park,,nan,40.4446396455473,-79.9828968451559
Grant Street Islands,,nan,,
Herschel Park,,nan,,
Highland Park,,nan,,
Granville Playground (Play Area 2 to 12),1846 Enoch St,nan,40.4445935,-79.98304915
Hays Park,,nan,40.3835922379879,-79.9315856584138
Green House,,nan,40.3148311863733,-80.011959676649
Green Houses,,nan,40.5679109332852,-79.9120586212174
Gunther's Abandoned House,,nan,40.3123914825094,-80.0127025250048
Granville Playground (Swing 2 Bays),15 Granville St,nan,40.44445201,-79.98307563
Hartwood Mansion,,nan,40.5701888065267,-79.9090275372178
Hartwood Stage,,nan,40.567687165531,-79.9235158290203
Hartwood Theatre Tent,,nan,40.5710607246716,-79.9098518810816
Haunted House,,nan,40.3333056369334,-80.0093204505686
Harris Triangle,,nan,40.456434117906,-79.9549325457985
Hays Playground (Play Area 5 to 12),Mifflin Rd,nan,40.38352439,-79.9319195
Hays Playground (Spring Toy - Bulldozer),32 Hillburn St,nan,40.38349695,-79.93194988
Hays Playground (Swing 2 Bays),26 Hillburn St,nan,40.38343895,-79.93171711
Hazelwood Senior Center,,nan,40.4033636075127,-79.9425344341502
Herschel Playground (Play Area 2 to 12),839 Herschel St,nan,40.44025262,-80.04334054
Heth's Park,,nan,40.4774577686987,-79.9278588768846
Herschel Playground (Swing 3 Bays),851 Herschel St,nan,40.4403499,-80.04345842
Heth's Playground (Play Area 2 to 5),5421 Hampton St,nan,40.47699291,-79.92820566
Heth's Playground (Swing 3 Bays),5423 Hampton St,nan,40.47681856,-79.92824468
Highland Ave Plant Strip,,nan,40.4658551642128,-79.9230720354463
Highland Park Super Playground (Play Area 2 to 12),Reservoir Dr,nan,40.48034991,-79.91843203
Highland Park Super Playground (Swing 1 Bay),Reservoir Dr,nan,40.48034991,-79.91843203
Home Economics Building,,nan,40.3044872369742,-79.9954833921379
Highland Park Super Playground (Swing 2 Bays),Reservoir Dr,nan,40.48034991,-79.91843203
Homewood Park,,nan,40.4539670994802,-79.8995392436602
Homewood Senior Center,,nan,40.4569130628554,-79.8929199650758
Horse Show Ring,,nan,40.604890577552,-80.025290604647
Horse Show Ring,,nan,40.3031595822226,-79.9936675034421
Ice Skating Rink,,nan,40.6156356928387,-80.0232264654284
Ice Skating Rink,,nan,40.3263470138096,-80.0184609743932
Ice Skating Rink/ Rental Building,,nan,40.6159400887281,-80.0234323262762
J.C. Stone Field,,nan,40.5971762866071,-80.0109606759091
J.C. Stone Field Concession Stand,,nan,40.5961479174123,-80.01078344614
J.C. Stone Field Locker Rooms,,nan,40.596714372925,-80.0120733778062
Jail Triangle,,nan,40.4381644961978,-79.9946171349604
Jefferson Playground (Play Area 2 to 12),Ehlers Way,nan,40.4593707,-80.01459145
Jefferson Playground (Play Area 2 to 5),Ehlers Way,nan,40.4593707,-80.01459145
Joe Natoli Park,,nan,40.4840103640854,-79.9261535065511
Jefferson Playground (Swing 1 Bay),Ehlers Way,nan,40.4593707,-80.01459145
Joe Natoli Playground (Play Area 2 to 5),1730 Chislett St,nan,40.48457817,-79.92598109
Joe Natoli Playground (Play Area 5 to 12),1730 Chislett St,nan,40.48457817,-79.92598109
Joe Natoli Playground (Swing 4 Bays),1720 Chislett St,nan,40.48449446,-79.92627735
Kennard Park,,nan,40.4419606797634,-79.9739672542387
Joseph Kukuruda Playground (Play Area 2 to 12),9 Elmont St,nan,40.4394304,-80.05609507
Kennard Playground (Play Area 5 to 12),Old Kirkpatrick St,nan,40.44339313,-79.97397756
Kennard Playground (Spring Toy - Fire Truck),Old Kirkpatrick St,nan,40.44339313,-79.97397756
Kennard Playground (Swing 3 Bays),2272 Reed St,nan,40.44360891,-79.97392123
Larimer Park,,nan,40.4663883326614,-79.9129626185899
Kennard Playground (Whirl),Old Kirkpatrick St,nan,40.44339313,-79.97397756
Lakeview Baseball Field,,nan,40.6078135499175,-80.0039704309696
Kite Hill Park,,nan,40.467091363687,-79.93255845098
Larimer Playground (Play Area 2 to 5),541 McDonald St,nan,40.46677895,-79.91360586
Larimer Playground (Play Area 5 to 12),541 McDonald St,nan,40.46677895,-79.91360586
Jefferson Park,,nan,40.4591103857716,-80.0145279600804
Horse Show Area,,nan,40.5698101808002,-79.9227546590339
Larimer Playground (Spinner - Cozy Cocoon),541 McDonald St,nan,40.46677895,-79.91360586
Lawn & Ophelia Playground (Play Area 5 to 12),Ophelia St,nan,40.43550057,-79.96522151
Liberty Avenue Island,,nan,,
Leolyn Park,,nan,40.3992345114042,-79.985860555243
Lawn & Ophelia Playground (Swing 2 Bays),Ophelia St,nan,40.43550057,-79.96522151
Lawn and Ophelia Park,,nan,40.4355815286066,-79.9653645701718
Le Roi Rd Island,,nan,40.4476776943504,-79.9040635571066
Legion Memorial Park,,nan,40.4818636986616,-80.0346896045085
Leister Street Park,,nan,40.4621267506834,-79.9956414142894
Leolyn Playground (Play Area 2 to 12),Leolyn St,nan,40.39927392,-79.98607452
Leolyn Playground (Spinner - Cozy Cocoon),1623 Leolyn St,nan,40.39934062,-79.98596462
Leolyn Playground (Swing 3 Bays),1623 Leolyn St,nan,40.39934062,-79.98596462
Leslie Park,,nan,40.4728271454605,-79.9583872797648
Leolyn Playground (Wall Climber),1623 Leolyn St,nan,40.39934062,-79.98596462
Leslie Playground (Play Area 2 to 5),4600 Butler St,nan,40.47274813,-79.95803029
Leslie Playground (Play Area 5 to 12),217 46th St,nan,40.47260519,-79.95814563
Lewis Park,,nan,40.4128713021569,-79.9448401788352
Leslie Playground (Swing 3 Bays),213 46th St,nan,40.47272031,-79.95825219
Lewis Playground (Play Area 2 to 12),Chatsworth Ave,nan,40.41286936,-79.94460577
Lewis Playground (Play Area 2 to 5),Chatsworth Ave,nan,40.41286936,-79.94460577
Lewis Playground (Play Area 5 to 12),Chatsworth Ave,nan,40.41286936,-79.94460577
Lewis Playground (Swing 4 Bays),Chatsworth Ave,nan,40.41286936,-79.94460577
Lincoln Place Park,,nan,40.3698277464748,-79.9175233859486
Lewis Playground (Whirl),112 Berwick St,nan,40.4128974,-79.94479519
Liberty School,,nan,40.4538651677001,-79.9337901660005
Lincoln Place Playground (Play Area 5 to 12),Cox Ave,nan,40.36979088,-79.91747146
Latodami Nature Ctr,,nan,40.6210044499461,-80.0305296027066
Lincoln Place Playground (Swing 2 Bays),5375 Cox Ave,nan,40.37002022,-79.91737758
Lookout Street Park,,nan,40.4692740074673,-79.9768226274348
Lincoln Place Playground (Whirl),5375 Cox Ave,nan,40.37002022,-79.91737758
Lodge,,nan,40.6171531805482,-80.0169656951639
Linden School,,nan,40.4449142709966,-79.9160086650571
Log Cabin (Settler's Cabin),,nan,40.4180575788383,-80.1693093461711
Lone Pine Field,,nan,40.5885907530779,-79.9835124413167
Lodge Potenza Senior Center,,nan,40.4301624281531,-80.0079060169234
Lookout Street Playground (Play Area 2 to 12),Lookout St,nan,40.46923812,-79.97707524
Lookout Street Playground (Spinner),Lookout St,nan,40.46923812,-79.97707524
Magee Park,,nan,40.4247010268859,-79.9370926088176
Lookout Street Playground (Swing 2 Bays),Lookout St,nan,40.46923812,-79.97707524
Lower Horse Ring,,nan,40.56984127325,-79.924663724674
Loraine St Park,,nan,40.4587134709621,-80.0064311423185
Magee Playground (Geo Climber),745 Greenfield Ave,nan,40.42455948,-79.93718887
Magee Playground (Play Area 5 to 12),745 Greenfield Ave,nan,40.42455948,-79.93718887
Manchester Park,,nan,40.4586596059363,-80.025159087187
Magnoila Volleyball,,nan,40.338855507979,-79.7959494852923
Magee Playground (Swing 2 Bays),745 Greenfield Ave,nan,40.42455948,-79.93718887
Manchester Playground (Play Area 2 to 5),,nan,40.45852728,-80.02567068
Manchester Playground (Play Area 5 to 12),,nan,40.45852728,-80.02567068
Marmaduke Park,,nan,40.4846483611118,-80.042414528694
Manchester Playground (Swing 2 Bays),,nan,40.45852728,-80.02567068
Maple Springs Gazeebo,,nan,40.3153642621739,-80.0005316524059
Maple Sugering House,,nan,40.6620779658635,-79.7036917639725
Manchester School Park,,nan,40.4569033804879,-80.0248418960454
Market Square Park,,nan,40.4406888442451,-80.0025598459103
Marmaduke Playground (Play Area 5 to 12),1908 Marmaduke St,nan,40.48437929,-80.04268125
Lincoln Place Playground (Swing 2 Bays),Cox Ave,nan,40.36979088,-79.91747146
Marmaduke Playground (Spring Toy - Squirrel),1900 Marmaduke St,nan,40.48436445,-80.04246179
McBride Park,,nan,,
Marshall-California Park,,nan,40.4625156946037,-80.0304683618425
McKinley Park,,nan,,
Marmaduke Playground (Swing 3 Bays),Bonaventure Way,nan,40.48450322,-80.04205076
Marshall-California Playground (Play Area 2 to 12),Atmore St,nan,40.46251969,-80.03044879
Marshel Island,,nan,40.6139339432265,-80.0209901715831
Marshall-California Playground (Play Area 2 to 5),Atmore St,nan,40.46251969,-80.03044879
Martin Luther King Park,,nan,40.439641824787,-79.9737074631383
McBride Playground (Play Area 2 to 5),1785 McBride Ave,nan,40.37056239,-79.9071483
McBride Playground (Play Area 5 to 12),1785 McBride Ave,nan,40.37056239,-79.9071483
McBride Playground (Swing 1 Bay),1785 McBride Ave,nan,40.37056239,-79.9071483
McCandless Park,,nan,40.4808454024229,-79.9525547897197
McBride Playground (Swing 2 Bays),1785 McBride Ave,nan,40.37056239,-79.9071483
McCandless Playground (Play Area 5 to 12),McCandless Ave,nan,40.48080179,-79.9526855
McGonigle Park,,nan,40.4589108089518,-80.0663106478795
McCandless Playground (Swing 2 Bays),McCandless Ave,nan,40.48080179,-79.9526855
McGonigle Playground (Play Area 2 to 5),3633 Allendale Cir,nan,40.45992915,-80.06510049
McGonigle Playground (Play Area 5 to 12),3607 Allendale Cir,nan,40.4595869,-80.06506026
McGonigle Playground (Swing 3 Bays),3641 Allendale Cir,nan,40.46005408,-80.06511927
McGonigle Playground (Whirl),3607 Allendale Cir,nan,40.4595869,-80.06506026
McKinley Playground (Play Area 2 to 5),164 Amesbury St,nan,40.41387409,-80.00452539
McKinley Playground (Play Area 5 to 12),166 Amesbury St,nan,40.41395764,-80.00450344
McKnight Park,,nan,40.4520339344307,-80.0227790150378
McKinney Field,,nan,40.6202124571894,-80.0484687207703
McKinley Playground (Swing 3 Bays),172 Amesbury St,nan,40.41393384,-80.00436589
McKnight Playground (Balance Beam),1222 Page St,nan,40.45205561,-80.02243329
McKnight Playground (Play Area 2 to 5),1239 Faulsey Way,nan,40.45199705,-80.02283028
McKnight Playground (Play Area 5 to 12),1230 Page St,nan,40.45201131,-80.02259357
McPherson Blvd Strip,,nan,,
McKnight Playground (Swing 2 Bays),1235 Faulsey Way,nan,40.45210409,-80.02275695
Mellon Park,,nan,,
Mckinley Bausman Playground (Play Area 2 to 12),Bausman St,nan,40.413045,-79.99814829
Mellon Park Island,,nan,40.452400987742,-79.9153000180754
Mckinley Bausman Playground (Swing 4 Bays),Bausman St,nan,40.413045,-79.99814829
Mellon Playground (Play Area 2 to 12),6577 5th Ave,nan,40.45379882,-79.91569944
Mellon Playground (Play Area 2 to 5),6559 5th Ave,nan,40.45377017,-79.91597679
Mellon Playground (Swing 5 Bays),6577 5th Ave,nan,40.45379882,-79.91569944
Monongahela Park,,nan,40.421553520451,-79.966359347741
Mellon Playground (Whirl),6555 5th Ave,nan,40.45374249,-79.91604125
Middle Road Concession Stand,,nan,40.5671190829549,-79.9238224216472
Midway Restaurant Rental,,nan,40.306054870024,-79.996802936532
Millfield,,nan,40.6109278695681,-80.0181694596372
Mellon Square Park,,nan,40.4409244022694,-79.9974421966912
Monitor St and St Phil Islands,,nan,40.4264630009836,-79.9191391018283
Moore Park,,nan,40.4050173901629,-80.0132318359311
Monongahela Playground (Swing 2 Bays),3016 Josephine St,nan,40.42193647,-79.96576403
Monongahela Wharf Landing Park,,nan,40.4376387791677,-80.0047064660559
Moore Playground (Play Area 5 to 12),1811 Pioneer Ave,nan,40.40526905,-80.01439662
Moore Playground (Swing 4 Bays),1807 Pioneer Ave,nan,40.40534713,-80.01416593
Morrow Triangle Park,,nan,40.4565598360098,-79.9389314765517
Moore Playground (Whirl),1807 Pioneer Ave,nan,40.40534713,-80.01416593
Mt. Washington Playground (Play Area 2 to 5),726 Kuhn St,nan,40.42461165,-80.01323607
Mt. Washington Playground (Play Area 5 to 12),726 Kuhn St,nan,40.42461165,-80.01323607
Mutual Park,,nan,40.4516649515486,-80.064372884591
Museum Building,,nan,40.3034998177676,-79.9973416427115
Mt. Washington Playground (Swing 2 Bays),531 Norton St,nan,40.4245355,-80.01346138
Mutual Playground (Play Area 2 to 5),Mutual St,nan,40.45221297,-80.063946
Oakwood Playground (Play Area 5 to 12),Celtic Way,nan,40.426078,-80.06680422
Mutual Playground (Swing 2 Bays),Mutual St,nan,40.45221297,-80.063946
Northshore Riverfront Park,,nan,,
Nelson Mandela Peace Park,,nan,40.4660376199623,-79.9406873419186
Oakwood Park,,nan,,
Mutual Playground (Whirl),Mutual St,nan,40.45221297,-80.063946
Naturalist's House,,nan,40.321088891066,-80.0060320887233
Nature Center,,nan,40.6212360732116,-80.0316420197761
Nature Center,,nan,40.4606353696247,-79.7537574690376
Nature Center,,nan,40.3041544732216,-79.9958308457008
Nature Center Rental Home 1,,nan,40.6213758823614,-80.0308293995634
Nature Center Rental Home 2,,nan,40.6214109181976,-80.0306178589717
N Euclid Ave Square,,nan,40.4626116137703,-79.9279015519083
Negley Run Blvd,,nan,40.4667950609276,-79.91757071601
Negley Run Strip,,nan,40.4660097380471,-79.9186069414051
Negley-Collins Triangle,,nan,40.466349786388,-79.9189478634809
Nelson Mandela Playground (Play Area 2 to 5),N Evaline St,nan,40.46611838,-79.94057185
Nelson Mandela Playground (Play Area 5 to 12),N Evaline St,nan,40.46611838,-79.94057185
Nelson Mandela Playground (Swing 2 Bays),N Evaline St,nan,40.46611838,-79.94057185
Niagara Playground (Play Area 2 to 5),Craft Ave,nan,40.43466977,-79.96028514
Niagara Playground (Play Area 5 to 12),Craft Ave,nan,40.43466977,-79.96028514
North Ave. Playground (Play Area 2 to 5),357 W North Ave,nan,40.45455617,-80.01010838
North Ave. Playground (Play Area 2 to 5),377 W North Ave,nan,40.45452597,-80.01030892
North Ave. Playground (Play Area 5 to 12),377 W North Ave,nan,40.45452597,-80.01030892
North Ave. Playground (Stepping Pod - 5),373 W North Ave,nan,40.45455378,-80.01027744
North Ave. Playground (Wall Climber),377 W North Ave,nan,40.45452597,-80.01030892
Oakland Square,,nan,40.4370605080164,-79.9515143051462
Oakwood Playground (Play Area 2 to 5),Celtic Way,nan,40.426078,-80.06680422
Park Manager Building,,nan,40.6143837851992,-79.8147598603564
Niagara Park,,nan,40.4347180842844,-79.9601093869824
Oliver Bath House,,nan,40.4295938387182,-79.9889074823008
Oblock Playground,,nan,40.4677995531567,-79.7561850232948
Observation Tower,,nan,40.6175331173677,-80.016330937491
Off-Leash Dog Park,,nan,40.6085368806984,-80.0170081710285
Off-Leash Dog Park,,nan,40.5693267744361,-79.9212226707908
Off-Leash Dog Park,,nan,40.3405989515955,-79.7912200543598
Off-Leash Dog Park,,nan,40.3135727749687,-80.0041205953976
Old Administration Building,,nan,40.3064296515191,-79.9960696642511
Old County Home,,nan,40.4170610281868,-80.1693989495241
Old Firehouse,,nan,40.5956236958477,-80.0113874540426
Old Tennis Court Compound,,nan,40.3186570166116,-80.0061239623627
Old Water Filtration Plant,,nan,40.6127282884266,-80.021069625751
Oakwood Playground (Whirl),Celtic Way,nan,40.426078,-80.06680422
Oliver Miller Homestead,,nan,40.3201028851345,-80.0065456537974
Olympia Playground (Play Area 2 to 5),421 Olympia Rd,nan,40.43133379,-80.01781583
Olympia Playground (Play Area 5 to 12),418 Olympia Rd,nan,40.43148145,-80.01787555
Olympia Playground (Swing 3 Bays),422 Olympia Rd,nan,40.4313218,-80.0179714
Ormsby Park,,nan,40.4288147588573,-79.9742660652553
Olympia Playground (Wall Climber),419 Olympia Rd,nan,40.43140677,-80.01778972
Ormsby Playground (Play Area 2 to 12),59 S 22nd St,nan,40.42936925,-79.97404419
Ormsby Playground (Play Area 5 to 12),59 S 22nd St,nan,40.42936925,-79.97404419
Osceola Park,,nan,40.4568493504493,-79.9426675111111
Ormsby Playground (Swing 3 Bays),59 S 22nd St,nan,40.42936925,-79.97404419
Osceola Playground (Play Area 2 to 12),539 Osceola St,nan,40.45688847,-79.94224782
Osceola Playground (Play Area 2 to 5),5222 Powhattan St,nan,40.45677344,-79.94215272
Osceola Playground (Spring Toy - Dinosaur),5222 Powhattan St,nan,40.45677344,-79.94215272
Osceola Playground (Swing 1 Bay),5222 Powhattan St,nan,40.45677344,-79.94215272
Parish Hill Rental,,nan,40.6020107471522,-80.0151665646463
Oakwood Playground (Swing 3 Bays),1 Tarner St,nan,40.4262338,-80.06689598
Osceola Playground (Swing 2 Bays),539 Osceola St,nan,40.45688847,-79.94224782
Parkview Islands,,nan,,
Paul J. Sciullo II Memorial Park,,nan,,
Phillips Park,,nan,,
Phillips Playground (Swing 3 Bays),426 Sinton Ave,nan,40.38803817,-79.99058604
Pauline Playground (Climber - Overhead),2170 Pauline Ave,nan,40.40461725,-80.02587062
Pauline Park,,nan,40.4046215597217,-80.0257876662717
Paul Sciullo Jr. Playground (Swing 2 Bays),336 Ella St,nan,40.4623091,-79.9530673
Phillips Playground (Play Area 5 to 12),418 Sinton Ave,nan,40.3883019,-79.99032026
Paulson Rec Center,,nan,40.4682507416026,-79.9036731709293
Paulson Playground (Play Area 5 to 12),1322 Paulson Ave,nan,40.46904121,-79.90032968
Paulson Playground (Play Area 2 to 5),1322 Paulson Ave,nan,40.46904121,-79.90032968
Paulson Park,,nan,40.4686735826498,-79.8998394088387
Pauline Playground (Whirl),2170 Pauline Ave,nan,40.40461725,-80.02587062
Pauline Playground (Wall Climber),2170 Pauline Ave,nan,40.40461725,-80.02587062
Pauline Playground (Swing 3 Bays),2170 Pauline Ave,nan,40.40461725,-80.02587062
Pauline Playground (Play Area 5 to 12),2170 Pauline Ave,nan,40.40461725,-80.02587062
Park Manager Building,,nan,40.4276537326392,-80.1628130609371
Ream Playground (Play Area 2 to 5),345 Virginia Ave,nan,40.43125653,-80.01323474
Riverview Playground (Swing 2 Bays),Riverview Ave,nan,40.48124636,-80.01776251
Schenley Park,,nan,,
Schenley Anderson Playground (Spinner),Panther Hollow Rd,nan,40.43562247,-79.94752293
Southside Playground (Play Area 2 to 5),1633 St Patrick St,nan,40.42047668,-79.98167507
Silent Brook,,nan,40.3258470474309,-80.0155651726611
Swisshelm Playground (Balance Beam),Nightengale Way,nan,40.4207868,-79.90193492
Sue Murray Playground (Swing 2 Bays),413 Cedar Ave,nan,40.45162795,-80.00150071
Tustin Playground (Play Area 5 to 12),Tustin St,nan,40.43665961,-79.9765898
Westinghouse Playground (Play Area 5 to 12),398 N Murtland St,nan,40.45290843,-79.90333692
Westinghouse Playground (Play Area 2 to 5),7051 Thomas Blvd,nan,40.45272998,-79.90318401
Westinghouse Park,,nan,40.4527262754554,-79.9027022000333
West Penn Playground (Swing 3 Bays),2978 Brereton St,nan,40.45615401,-79.97039827
Warrington Playground (Swing 2 Bays),329 E Warrington Ave,nan,40.42140561,-80.00122691
Warrington Playground (Play Area 5 to 12),329 E Warrington Ave,nan,40.42140561,-80.00122691
Winters Playground (Play Area 2 to 5),Yard Way,nan,40.42289283,-79.98118978
Westwood Island,,nan,40.4378376691262,-80.0538897712353
