name,street_address,zip_code,latitude,longitude
Giant Eagle #47 / Market District Robinson ,100 Settlers Ridge Center Drive,15205,40.441637634695,-80.1513485570352
Coraopolis Cash Market,1017 4th Avenue,15108,40.51830673,-80.16281306
Giant Eagle,4680 Old Wm Penn Hwy,15146,40.43933709,-79.74333903
Pittsburgh Commissary,79 Soldiers Lane,15108,40.50187051,-80.21844145
Save A Lot,25 Foster Avenue,15205,40.44069512,-80.06941899
Kuhn's,700 Buelah Road,15145,40.427123,-79.835819
Shop N Save,4647 Buttermilk Hollow Road,15122,40.36099215,-79.90653531
Dollar Tree #5553,1630 Arlington Avenue,15210,40.4173609186483,-79.9874162395652
Costco #649,501 W Waterfront Dr,15120,40.4029700093699,-79.9214116735045
Donatelli's Italian Food Center,4711 Liberty Avenue,15224,40.4621478401123,-79.9493419627557
East End Food Co-Op,7516 Meade Street,15208,40.44830433,-79.89570123
Food Shoppe,5878 Northumberland  Street,15217,40.4415613067987,-79.9205356682313
Shop 'n Save,4313 Walnut  Street,15132,40.3219335823086,-79.8336933853579
Shop 'n Save,5001 Library Road,15102,40.3410994460123,-80.0246620779768
Community Market,1710 Pacific Avenue,15065,40.6211027742764,-79.7240879980997
Bombay Market,4605 Centre Avenue,15213,40.4521473944633,-79.9517842956016
Community Super Market,1117 Milltown Rd,15147,40.4986513151729,-79.7907203449821
Costco #332,202 Costco Drive,15205,40.4595128129547,-80.1652254364233
Giant Eagle #25,1029 West View Park Drive,15229,40.516959,-80.038859
Fresh Thyme Farmer's Market #452,665 Clairton  Boulevard,15236,40.3301968381685,-79.9440817860651
Giant Eagle #45,225 Blazier Dr,15237,40.584386,-80.038153
Giant Eagle #64,3812 O'Neil Blvd,15132,40.347309,-79.831342
Genji,10576 Perry Highway,15090,40.6122613707721,-80.0529106557463
Giant Eagle #67,8080 McKnight Rd / McIntyre Square  Drive,15237,40.556668,-80.022232
Giant Eagle #0004,5055 Library  Road,15102,40.3389236351549,-80.0254781207211
Giant Eagle / Market District Pine #43,155 Towne Center  Drive,15090,40.632214,-80.054324
Giant Eagle #0015,1701 Lincoln Highway,15137,40.3722453854663,-79.7887557401352
Giant Eagle #0052,132 Ben Avon Heights Rd,15237,40.5216393149771,-80.0691386522503
Fresh Thyme Farmers Market #451,1155 Washington Pike,15017,40.36960041,-80.10501537
Giant Eagle #0073,9901 Mountain View  Drive,15122,40.3396577028123,-79.9497507234932
Giant Eagle #641,1025 Washington Pike,15017,40.367163,-80.110119
Giant Eagle #0093,600 Towne Square Way,15227,40.3656415083411,-79.9834038578078
Giant Eagle #24 ,3239 Washington Pike,15017,40.34106021,-80.11828257
Giant Eagle #068,5990 University Boulevard,15108,40.5217743173523,-80.2205626401866
Giant Eagle #37,5 Quaker Village Shopping Center,15056,40.559414,-80.203569
Giant Eagle #1691,400 Northtowne  Square,15044,40.6364706790034,-79.9422997344717
Giant Eagle #17,6320 Shakespeare St,15206,40.4586694165469,-79.920755192051
Giant Eagle #18,1671 Butler Plank Road,15116,40.5375454030348,-79.9649148718196
Giant Eagle #2,1800 McKees Rocks Rd,15136,40.4677890700157,-80.0976432288596
Giant Eagle #29,1356 Hoffman Boulevard,15122,40.3842655281108,-79.8681439041393
Giant Eagle #31,5260  Grove Road,15236,40.3573973996838,-80.0022768909744
Giant Eagle #35,1717 Cochran  Road,15220,40.3927229216368,-80.0647269863152
Giant Eagle #38,1901 Murray Avenue,15217,40.4356644808696,-79.9225606363348
Shop 'n Save #0212100,4548 Broadway  Boulevard,15146,40.389146494909,-79.7671915533704
Giant Eagle #60,4010 Monroeville Boulevard,15146,40.432094206355,-79.7726641316603
Giant Eagle #605 Elizabeth Township,800 McKeesport  Road,15037,40.2799239290416,-79.875698354338
Giant Eagle #61,2021 Wharton  Street,15203,40.4311319291128,-79.9766070844995
Giant Eagle #619,1705 Braddock Avenue,15218,40.427317,-79.890896
Giant Eagle #63,4250  Murray Ave,15217,40.422252855852,-79.9294231858365
Giant Eagle #6379,420 E Waterfront Dr,15120,40.4110092447386,-79.9084912857073
Giant Eagle #646,51 Walsh Road,15205,40.4405981739094,-80.0720081639852
Giant Eagle #65,4110 Brighton Road,15212,40.4892632674544,-80.0434660161438
Giant Eagle #69,9001 Frankstown  Road,15235,40.4626672982706,-79.8652581449567
Giant Eagle #695,200 Allegheny River Boulevard,15147,40.4992344638881,-79.8444725515873
Giant Eagle #74,1165 McKinney Lane #100,15220,40.4230005232593,-80.0350228161454
Giant Eagle #77,254 Yost  Boulevard,15221,40.4144911501518,-79.8552918228808
Giant Eagle #78,230 Rodi Road,15235,40.4617445773283,-79.8252122711155
Giant Eagle #91,318 Cedar Avenue,15212,40.4515012707367,-79.9996723779341
Giant Eagle / Market District Shadyside #40,5550 Centre Avenue,15232,40.4566054440019,-79.9343652788186
Kuhn's Market,745 Ingomar  Road,15127,40.581318,-80.055503
Giant Eagle / Market District South Hills #14,7000 Oxford  Drive,15102,40.3472222182917,-80.0465464537892
Kuhn's Market,700 Beulah Rd,15145,40.42616,-79.835056
Giant Eagle / Market District Waterworks #72,910 Freeport  Road,15238,40.4880818184585,-79.8943172227734
Sam's Club #6678,289 Mt Nebo Pointe Drive,15237,40.534182,-80.067947
Giant Eagle Express #5103,2611 Freeport Road,15238,40.5378348108938,-79.838817397384
Save A Lot / Wilkinsburg,725 Ross St,15221,40.442874,-79.884791
Giant Eagle Store #600,2001 Lincoln  Way,15131,40.3355093395296,-79.8040198034118
Leonard Labriola's Italian Store,112 Northgate Drive,15086,40.65050723,-80.07820545
Shop 'n Save,4647 Buttermilk Hollow Road,15122,40.36099215,-79.90653531
Gordon Food Service Store ,510 Clairton Blvd,15236,40.3338231198288,-79.9470969897752
Lamperts Deli Express,2010 Eden Park Boulevard,15132,40.34261995,-79.82914101
Gurung Brothers ,2950 Brownsville Road,15227,40.3814730252973,-79.9765425506129
Safrans Market,429 Walnut Street,15143,40.54103912,-80.18226221
Gordon Food Service,3620 Wm Penn Hwy,15146,40.43207844,-79.79961153
Kuhn's Market,2412 Ferguson  Road,15101,40.5549333517801,-79.9724557251409
Leonard Labriola's Italian Market,4039 Monroeville Boulevard,15146,40.43561275,-79.76893262
Kuhn's Market,4801 McKnight Road,15237,40.5263638955816,-80.0087942442622
Patel Brothers,312 Mall Plaza Boulevard,15146,40.433412,-79.78908
Kuhn's Market,661 Lincoln Ave,15202,40.4971622083202,-80.06027922446
Patsy's Market,483 Center Avenue,15147,40.50668646,-79.83973242
Kuhn's Market,1130 Highwood St,15212,40.4683946374744,-80.0266026129949
Leonard Labriola Foods,121 Hulton Road,15147,40.48454873,-79.82011275
Many More Asian Market,3050 Smallman Street,15201,40.45982545,-79.97256764
Kuhn's Market #4,3125 Banksville Road,15216,40.3998001269022,-80.0434513724498
Gordon Food Service Store,1 Urbano Way,15205,40.4573716,-80.16599362
Las Palmas,700 Brookline Boulevard,15226,40.3945831705757,-80.0216923070246
Lotus Noodle Co,1649 Penn Avenue,15222,40.4497663732215,-79.986426220449
Market on Broadway IGA / Las Palmas,1616 Broadway Avenue,15216,40.4101126324247,-80.024943742701
Murray Avenue Kosher,1912 Murray  Avenue,15217,40.4355414383475,-79.9231754772003
Oriental Market,4768 McKnight  Road,15237,40.51991327124,-80.0043708914935
Robert Wholey Co,1711 Penn Avenue,15222,40.4501010031256,-79.9858632975096
Sam's Club #4952,2000 Village Center Drive,15084,40.5658148226346,-79.8042349198677
Sam's Club #6575,249 Summit Park Drive,15275,40.4495538766619,-80.1779904349046
Sam's Club #6677,3621 Wm Penn Hwy,15146,40.4364851928196,-79.7995118358429
Sam's Club #6679,2251 Century  Drive,15122,40.3438997276761,-79.9490457924018
Save A Lot / Duquesne,9 Duquesne Plaza,15110,40.3745913445493,-79.8468335297461
Save A Lot / North Versailles,355 Lincoln Hwy,15137,40.3844829417729,-79.8212778114393
Shop 'n Save,450 56th Street,15201,40.4832210796356,-79.9486161713864
Shop 'n Save,2362 Golden Mile  Highway,15239,40.4624461319207,-79.7047653659144
Shop 'n Save,799 Castle Shannon  Boulevard,15234,40.3691959160416,-80.0286316622096
Shop 'n Save #0212404 Imperial,600 Market Place Drive,15071,40.4402026512141,-80.241229135522
Shop 'n Save / Glenshaw #212403,917 Butler Street,15116,40.511435,-79.949184
Shop 'n Save #1076 Mt. Washington,125 Virginia Avenue,15211,40.4294207827719,-80.0079707599967
Shop 'n Save Penn Hills ,2820 Universal  Road,15235,40.476155,-79.784692
Shop 'n Save - Pines Plaza ,1130 Perry  Highway,15237,40.5479378815443,-80.0355798189684
Trader Joe's #624,9020 Covenant Avenue,15237,40.570472,-80.022153
Shop 'n Save - Ross's Village,1886 Homeville Road,15122,40.3654532753713,-79.8733260440576
Shop 'n Save - Wilkins Twp,3335 Wm Penn  Highway,15235,40.4329188881668,-79.817628876349
Whitehall Asian Supermarket,1406 Radford  Road,15227,40.363957,-79.967437
Shop 'n Save / Brownsville Road,1119 Brownsville  Road,15210,40.4048249476727,-79.989721255342
Wal-Mart Super Center #2588,100 WAL-MART DR,15137,40.386894,-79.824297
Shop 'n Save / Century Square,2381 Mountain View  Drive,15122,40.3449102270979,-79.946597630338
Target #2787,201 SOUTH HILLS VILLAGE,15241,40.343851,-80.057609
Shop 'n Save / Heidelberg,2100 Washington Pike,15106,40.3878912647148,-80.0925646091617
Whole Foods Market #53,5880 Centre Ave,15206,40.45845347,-79.92897802
Shop 'n Save / Noblestown #2412,2103 Noblestown  Road,15205,40.4306512290677,-80.0519979037217
Shop 'n Save / Rochester,184 Rochester  Road,15229,40.5198074269627,-80.0181034349263
Shop 'n Save / Russellton,908 Little Deer Creek Valley Road,15076,40.6086628976599,-79.833503856548
Shop 'n Save / Shaler,1620 Babcock  Boulevard,15209,40.4991465632107,-79.9789010794588
Shop 'n Save McKeesport ,815 5th Ave,15132,40.3519055509553,-79.8560283571471
Shop N Save,649 Old Clairton Road,15236,40.3242329412658,-79.9568084659502
Shop N Save#3102,5375 William Flynn Highway,15044,40.619568,-79.946359
Shursave,4401 Liberty  Avenue,15224,40.4641309781166,-79.9520630304225
Soergel's Orchards,2573 Brandt School Rd,15090,40.6145899641775,-80.0927508851657
T-Bones,100 VIP  Drive,15090,40.6169113511392,-80.0924641751422
Target #2757,6231 Penn Avenue,15206,40.4608542618671,-79.9219100853522
The Fresh Market,1551 Washington Road,15228,40.3546337437069,-80.0493099027057
Trader Joe's #630,1630 Washington Road Suite 1,15228,40.3513073073955,-80.0517467727594
Trader Joe's #638,6343 Penn  Avenue,15206,40.4591930409335,-79.9192342043347
Two Louie's Market,1233 Penn Avenue,15222,40.4464236673141,-79.9917630571851
WFH / Wing Fat Hong Oriental Food Market,2306 Penn Avenue,15222,40.4528030322044,-79.9810841301702
Wal-Mart #4644,7500 University  Boulevard,15108,40.5165777572193,-80.2241914551674
Wal-Mart Super Center #2281,2351 Century  Drive,15122,40.3423950830376,-79.9466268875031
Wal-Mart Super Center #2300,250 Summit Park Drive,15275,40.4472891084208,-80.1762439814093
Wal-Mart Super Center #3838,2010 Village Center Drive,15084,40.5640866984935,-79.8041418770802
Wal-mart Super Center #3738,4015 Freeport Road,15065,40.6469097311273,-79.710023447838
Whole Foods Market,111 Siena Drive,15241,40.3461231926006,-80.0581104695546
Whole Foods Wexford #10377,10576 Perry  Highway,15090,40.6122613707721,-80.0529106557463
